CHALLENGE ONE           
1 47956U 21022AA  21329.67761924  .00001601  00000+0  11373-3 0  9992
2 47956  97.5457 228.4537 0023602 121.1151 239.2396 15.05902378 37101
GRBALPHA                
1 47959U 21022AD  21330.37880908  .00001198  00000+0  85802-4 0  9998
2 47959  97.5454 229.2011 0023122 117.2327 243.1242 15.06083225 36245
ORBICRAFT-ZORKY         
1 47960U 21022AE  21330.50023645  .00000911  00000+0  66129-4 0  9995
2 47960  97.5464 229.3844 0022857 115.9016 244.4564 15.06155732 36959
3B5GSAT (SATELIOT 1)    
1 47961U 21022AF  21329.67681213  .00002814  00000+0  19348-3 0  9997
2 47961  97.5455 228.6123 0022388 118.5693 241.7791 15.06536270 36133
STECCO                  
1 47962U 21022AG  21330.41126734  .00002328  00000+0  15747-3 0  9993
2 47962  97.5428 229.5868 0018043 112.8413   1.5677 15.07374388 36260
DIY-1 (ARDUIQUBE)       
1 47963U 21022AH  21329.69927912  .00002935  00000+0  19180-3 0  9998
2 47963  97.5446 229.1481 0020568 110.4217 249.9223 15.08418069 36192
SMOG-1                  
1 47964U 21022AJ  21329.48304867  .00001878  00000+0  12672-3 0  9998
2 47964  97.5443 228.8031 0020972 112.5934 247.7515 15.07654662 36139
VEERY-RL1               
1 47965U 21023A   21330.44440599  .00001975  00000+0  14583-3 0  9992
2 47965  45.0016 229.7331 0012835 217.0586 142.9403 15.06944460 37477
CENTAURI-3 (TYVAK-0210) 
1 47966U 21023B   21330.43789252  .00001711  00000+0  13415-3 0  9995
2 47966  45.0037 232.9592 0005767 242.3027 117.7263 15.05281800 37434
M2-A                    
1 47967U 21023C   21330.23203843  .00000884  00000+0  77311-4 0  9997
2 47967  45.0044 233.6409 0009678 231.6367 265.7083 15.05267316 37408
MYRIOTA 7 (TYVAK-0152)  
1 47968U 21023D   21330.46859422  .00001198  00000+0  98256-4 0  9993
2 47968  45.0071 232.0210 0008906 231.3393 300.0228 15.05549954 37440
GUNSMOKE-J 3            
1 47969U 21023E   21330.22688091  .00000921  00000+0  78908-4 0  9995
2 47969  45.0049 232.8079 0009068 213.8005 283.6142 15.05746401 37416
GLOBAL-9                
1 47971U 21023G   21330.56063796  .00003020  00000+0  85316-4 0  9998
2 47971  45.0030 164.1332 0008025 290.2480 162.1257 15.38925135 38267
PHOTON-02               
1 47972U 21023H   21330.53710844  .00004702  00000+0  12262-3 0  9996
2 47972  45.0008 162.3926 0006928 274.2925 112.6141 15.40259511 38294
M2-B                    
1 47973U 21023J   21330.23226229  .00001185  00000+0  98102-4 0  9993
2 47973  45.0052 233.6435 0009414 231.8674 265.5722 15.05250645 11557
MMSATS-1                
1 47976U 98067SJ  21329.94572757  .00006610  00000+0  11632-3 0  9994
2 47976  51.6459 260.2519 0001487   2.6536 357.4452 15.51760445 38607
STARLINK-2087           
1 47977U 21024A   21330.49368541 -.00000879  00000+0 -40130-4 0  9999
2 47977  53.0541 148.5563 0001860  87.3011 272.8191 15.06392131 38429
STARLINK-1647           
1 47978U 21024B   21330.05044314 -.00000551  00000+0 -18116-4 0  9997
2 47978  53.0530 160.5615 0001899  82.2525 277.8680 15.06398672 38206
STARLINK-2325           
1 47979U 21024C   21330.58335648 -.00021383  00000+0 -15178-2 0  9998
2 47979  53.0513  92.1972 0001917  96.5769  51.8522 15.03954147 39212
STARLINK-2312           
1 47980U 21024D   21329.83334491  .00009803  00000+0  69130-3 0  9990
2 47980  53.0534  76.2106 0000359  98.7944 255.9075 15.05563387  3582
STARLINK-2303           
1 47981U 21024E   21329.64130986  .00000938  00000+0  81874-4 0  9993
2 47981  53.0545 162.4051 0001797  83.5503 276.5691 15.06387135 38679
STARLINK-2317           
1 47982U 21024F   21330.58335648 -.00030124  00000+0 -21023-2 0  9991
2 47982  53.0530  87.7455 0001630  57.4675 334.7881 15.04774325 39271
STARLINK-2289           
1 47983U 21024G   21330.25002315  .00496268  00000+0  23873-2 0  9996
2 47983  53.0548  57.1719 0001487  47.0382 310.4589 15.80768739 39660
STARLINK-2316           
1 47984U 21024H   21330.25002315  .00733192  00000+0  57029-2 0  9997
2 47984  53.0547  58.6535 0001786  38.6966 274.5784 15.68996668 39643
STARLINK-2308           
1 47985U 21024J   21330.25002315  .00041599  00000+0  29228-2 0  9991
2 47985  53.0543  93.8558 0001317  90.8063 186.3703 15.04735261 39151
STARLINK-2313           
1 47986U 21024K   21330.58335648  .00050074  00000+0  36959-3 0  9994
2 47986  53.0318  51.5645 0009961  23.6622 311.0099 15.72455227 40049
STARLINK-2311           
1 47987U 21024L   21330.25002315  .00496595  00000+0  23889-2 0  9990
2 47987  53.0548  57.1589 0001496  45.2366 312.8415 15.80767611 39663
STARLINK-2306           
1 47988U 21024M   21329.73392498  .00000766  00000+0  70324-4 0  9995
2 47988  53.0561 136.9798 0001803  84.9421 275.1774 15.06394238 38972
STARLINK-2305           
1 47989U 21024N   21330.58335648  .00000951  00000+0  82736-4 0  9991
2 47989  53.0541  68.1542 0001661  50.2037 181.7000 15.06389318 39546
STARLINK-2307           
1 47990U 21024P   21330.25002315 -.00017163  00000+0 -11357-2 0  9993
2 47990  53.0512  69.6921 0001231  92.9761  25.0968 15.06412755 39492
STARLINK-2279           
1 47991U 21024Q   21329.83334491 -.00011231  00000+0 -76940-3 0  9999
2 47991  53.0545  85.5127 0001512  68.7358  56.5775 15.04779471  3573
STARLINK-2229           
1 47992U 21024R   21330.25002315  .00041602  00000+0  27966-2 0  9991
2 47992  53.0555  79.6499 0001774  71.3497 276.8439 15.06383090 39354
STARLINK-2273           
1 47993U 21024S   21329.60444524  .00000937  00000+0  81796-4 0  9990
2 47993  53.0554 122.5580 0001491  93.8804 266.2355 15.06407783 39222
STARLINK-2290           
1 47994U 21024T   21329.74129358  .00001283  00000+0  10500-3 0  9990
2 47994  53.0545 136.9380 0001988  79.9594 280.1619 15.06398100 38973
STARLINK-2309           
1 47995U 21024U   21329.78595355  .00001461  00000+0  11695-3 0  9993
2 47995  53.0624 101.7225 0001581  77.1012 283.0154 15.06408440 39486
STARLINK-2260           
1 47996U 21024V   21330.25002315 -.00658623  00000+0 -21000-1 0  9996
2 47996  53.0427  61.6131 0001626  41.3598 318.7007 15.34349684 39602
STARLINK-2266           
1 47997U 21024W   21330.45268788  .00000610  00000+0  59894-4 0  9997
2 47997  53.0565 133.7550 0002036  91.4498 268.6724 15.06388703 38627
STARLINK-2296           
1 47998U 21024X   21329.77397848 -.00001096  00000+0 -54666-4 0  9994
2 47998  53.0533 111.7910 0001554  85.4275 274.6891 15.06395377 39335
STARLINK-2218           
1 47999U 21024Y   21330.58335648 -.00010462  00000+0 -68461-3 0  9990
2 47999  53.0553  78.1543 0001659  54.1497 162.7434 15.06392164 39400
STARLINK-2270           
1 48000U 21024Z   21330.25002315 -.00699946  00000+0 -35794-1 0  9991
2 48000  53.0443  64.9989 0001597  54.5610  94.2727 15.18592099 39564
STARLINK-2262           
1 48001U 21024AA  21330.56597185  .01751526  20858-2  25816-2 0  9993
2 48001  53.0398  53.2567 0009065  22.7901 337.3695 16.04796045 39743
STARLINK-2265           
1 48002U 21024AB  21330.58335648 -.00012366  00000+0 -81250-3 0  9992
2 48002  53.0547  83.1510 0001738  75.3746 174.0149 15.06407686 39336
STARLINK-2263           
1 48003U 21024AC  21330.22370116  .00000733  00000+0  68136-4 0  9995
2 48003  53.0539 159.7673 0002203  74.8790 285.2443 15.06399547 38224
STARLINK-2261           
1 48004U 21024AD  21330.58335648  .00487210  00000+0  23165-2 0  9996
2 48004  53.0547  55.4848 0001770  34.6047  61.9566 15.81047574 39710
STARLINK-2254           
1 48005U 21024AE  21330.46603713 -.00001656  00000+0 -92301-4 0  9993
2 48005  53.0586 128.6964 0002374 112.2120 247.9121 15.06391890 38691
STARLINK-2277           
1 48006U 21024AF  21330.48276771  .01776489  21864-2  25548-2 0  9999
2 48006  53.0368  51.9512 0009707 343.9764  16.0752 16.05211063 39757
STARLINK-2259           
1 48007U 21024AG  21330.58335648  .00490623  00000+0  23277-2 0  9995
2 48007  53.0547  55.4819 0001760  34.1254  64.0221 15.81085554 39717
STARLINK-2271           
1 48008U 21024AH  21330.58335648 -.00701159  00000+0 -37583-1 0  9991
2 48008  53.0395  63.4131 0001628  46.2212 336.6859 15.16968482 39618
STARLINK-2153           
1 48009U 21024AJ  21330.48259508  .00000080  00000+0  24253-4 0  9997
2 48009  53.0541 138.6024 0002034  86.0754 274.0467 15.06402698 38556
STARLINK-2226           
1 48010U 21024AK  21330.22737810  .00000713  00000+0  66817-4 0  9993
2 48010  53.0506 159.7729 0002208  83.7354 276.3886 15.06389575 38220
STARLINK-2272           
1 48011U 21024AL  21330.44945268  .00001528  00000+0  12149-3 0  9999
2 48011  53.0562 138.7491 0001820  88.2174 271.9024 15.06397542 38559
STARLINK-2216           
1 48012U 21024AM  21330.45451609  .00001113  00000+0  93560-4 0  9999
2 48012  53.0557 113.7299 0001483  83.0130 277.1028 15.06409041 38902
STARLINK-2243           
1 48013U 21024AN  21330.40569549  .00001143  00000+0  95644-4 0  9996
2 48013  53.0541 123.9666 0001863  83.9623 276.1578 15.06402277 38751
STARLINK-2283           
1 48014U 21024AP  21330.25002315  .00037987  00000+0  26142-2 0  9993
2 48014  53.0532  88.2729 0001501  89.6356 147.2973 15.05553288 39239
STARLINK-2281           
1 48015U 21024AQ  21330.58335648  .00480912  00000+0  22819-2 0  9995
2 48015  53.0547  55.4761 0006855 291.6314 167.2909 15.81093562 39716
STARLINK-2284           
1 48016U 21024AR  21330.58335648 -.00010863  00000+0 -71151-3 0  9996
2 48016  53.0542  73.1516 0001103  80.2654  24.0995 15.06400253 39471
STARLINK-2239           
1 48017U 21024AS  21329.14213082  .00288717  00000+0  14231-1 0  9991
2 48017  53.0562 149.2838 0000789  80.2789 279.8293 15.16128744 38758
STARLINK-2282           
1 48018U 21024AT  21329.75784756  .00000969  00000+0  83938-4 0  9994
2 48018  53.0537 146.8630 0001585  84.1596 275.9573 15.06404327 38906
STARLINK-2285           
1 48019U 21024AU  21330.45636290  .00000599  00000+0  59134-4 0  9993
2 48019  53.0563 133.7386 0001802  88.4858 271.6337 15.06383993 38624
